{
  "norad_id": 59691,
  "name": "STARLINK-32090",
  "history": [
    {
      "epoch": "2026-03-28T08:47:34.355904Z",
      "apogee_km": 483.73997268442054,
      "perigee_km": 482.3938044814813,
      "latitude_deg": 4.3237357163633256e-05,
      "longitude_deg": 0.6172501754800854,
      "height_km": 482.4336474137624,
      "semi_major_axis_km": 6861.203888582951,
      "eccentricity": 9.81e-05,
      "inclination_deg": 43.0027,
      "raan_deg": 318.2982,
      "arg_perigee_deg": 307.5009,
      "mean_anomaly_deg": 52.5754,
      "mean_motion_rev_day": 15.27574058
    },
    {
      "epoch": "2026-03-29T00:29:08.829312Z",
      "apogee_km": 484.2648287305228,
      "perigee_km": 481.9937495888107,
      "latitude_deg": 3.66098973988189e-05,
      "longitude_deg": 120.88371878818594,
      "height_km": 483.1506787115557,
      "semi_major_axis_km": 6861.2662891596665,
      "eccentricity": 0.0001655,
      "inclination_deg": 43.0028,
      "raan_deg": 314.6028,
      "arg_perigee_deg": 257.5796,
      "mean_anomaly_deg": 102.4871,
      "mean_motion_rev_day": 15.27553219
    },
    {
      "epoch": "2026-03-30T00:01:29.202816Z",
      "apogee_km": 484.0130714062734,
      "perigee_km": 482.1599921548104,
      "latitude_deg": 6.033886562587361e-06,
      "longitude_deg": 121.29158500583875,
      "height_km": 482.880380246495,
      "semi_major_axis_km": 6861.223531780542,
      "eccentricity": 0.00013504,
      "inclination_deg": 43.0023,
      "raan_deg": 309.0623,
      "arg_perigee_deg": 268.9528,
      "mean_anomaly_deg": 91.1169,
      "mean_motion_rev_day": 15.27567498
    },
    {
      "epoch": "2026-03-30T07:52:16.380768Z",
      "apogee_km": 484.28300781962025,
      "perigee_km": 481.91025600503144,
      "latitude_deg": 1.7803651097331248e-05,
      "longitude_deg": 1.4258813628841758,
      "height_km": 482.9322827814952,
      "semi_major_axis_km": 6861.233631912325,
      "eccentricity": 0.00017291,
      "inclination_deg": 43.0025,
      "raan_deg": 307.2154,
      "arg_perigee_deg": 267.1777,
      "mean_anomaly_deg": 92.8877,
      "mean_motion_rev_day": 15.27564125
    },
    {
      "epoch": "2026-03-30T23:33:50.937120Z",
      "apogee_km": 484.20967972055314,
      "perigee_km": 481.9854047066583,
      "latitude_deg": 2.3702275104426182e-05,
      "longitude_deg": 121.69491777962,
      "height_km": 483.0649448382382,
      "semi_major_axis_km": 6861.234542213606,
      "eccentricity": 0.00016209,
      "inclination_deg": 43.0018,
      "raan_deg": 303.5229,
      "arg_perigee_deg": 260.144,
      "mean_anomaly_deg": 99.9229,
      "mean_motion_rev_day": 15.27563821
    },
    {
      "epoch": "2026-04-01T13:13:35.350176Z",
      "apogee_km": 483.73925398758274,
      "perigee_km": 482.0473239183257,
      "latitude_deg": -5.249496481268732e-05,
      "longitude_deg": -93.64945298558555,
      "height_km": 482.6067545260345,
      "semi_major_axis_km": 6861.030288952954,
      "eccentricity": 0.0001233,
      "inclination_deg": 43.0035,
      "raan_deg": 294.6604,
      "arg_perigee_deg": 274.3043,
      "mean_anomaly_deg": 85.7667,
      "mean_motion_rev_day": 15.27632035
    },
    {
      "epoch": "2026-04-02T14:20:04.960896Z",
      "apogee_km": 483.5707957719078,
      "perigee_km": 482.3381320794988,
      "latitude_deg": 1.1539909295328314e-05,
      "longitude_deg": -117.21221990180585,
      "height_km": 483.0613720688588,
      "semi_major_axis_km": 6861.091463925703,
      "eccentricity": 8.983e-05,
      "inclination_deg": 43.0025,
      "raan_deg": 288.7521,
      "arg_perigee_deg": 237.5679,
      "mean_anomaly_deg": 122.5086,
      "mean_motion_rev_day": 15.27611604
    },
    {
      "epoch": "2026-04-03T13:52:24.931776Z",
      "apogee_km": 484.1810293872222,
      "perigee_km": 481.8921418790551,
      "latitude_deg": -9.206164502228826e-06,
      "longitude_deg": -116.80076127015498,
      "height_km": 482.59116177144483,
      "semi_major_axis_km": 6861.173585633139,
      "eccentricity": 0.0001668,
      "inclination_deg": 43.0039,
      "raan_deg": 283.2135,
      "arg_perigee_deg": 281.2252,
      "mean_anomaly_deg": 78.8412,
      "mean_motion_rev_day": 15.27584178
    },
    {
      "epoch": "2026-04-04T11:50:36.628800Z",
      "apogee_km": 483.92029011016166,
      "perigee_km": 482.1668468040871,
      "latitude_deg": 2.5579145630018742e-05,
      "longitude_deg": -92.42243466009747,
      "height_km": 482.75238318411937,
      "semi_major_axis_km": 6861.1805684571245,
      "eccentricity": 0.00012778,
      "inclination_deg": 43.0018,
      "raan_deg": 278.0428,
      "arg_perigee_deg": 274.4477,
      "mean_anomaly_deg": 85.6229,
      "mean_motion_rev_day": 15.27581846
    },
    {
      "epoch": "2026-04-05T12:57:07.831872Z",
      "apogee_km": 483.560340739411,
      "perigee_km": 482.6421698360882,
      "latitude_deg": -3.8633492430610405e-06,
      "longitude_deg": -115.99225663867892,
      "height_km": 482.76995891994807,
      "semi_major_axis_km": 6861.23825528775,
      "eccentricity": 6.691e-05,
      "inclination_deg": 43.0018,
      "raan_deg": 272.1342,
      "arg_perigee_deg": 283.5495,
      "mean_anomaly_deg": 76.5282,
      "mean_motion_rev_day": 15.27562581
    },
    {
      "epoch": "2026-04-07T12:01:49.151712Z",
      "apogee_km": 483.47692446831843,
      "perigee_km": 482.5746815597213,
      "latitude_deg": 4.766866240427313e-06,
      "longitude_deg": -115.18004889939165,
      "height_km": 483.06880789040594,
      "semi_major_axis_km": 6861.162803014019,
      "eccentricity": 6.575e-05,
      "inclination_deg": 42.9972,
      "raan_deg": 261.052,
      "arg_perigee_deg": 233.6437,
      "mean_anomaly_deg": 126.4354,
      "mean_motion_rev_day": 15.27587779
    },
    {
      "epoch": "2026-04-07T16:44:17.318688Z",
      "apogee_km": 483.9240260281658,
      "perigee_km": 482.1236574232971,
      "latitude_deg": -3.80044617495666e-05,
      "longitude_deg": 172.9057990469349,
      "height_km": 482.74645793792524,
      "semi_major_axis_km": 6861.160841725731,
      "eccentricity": 0.0001312,
      "inclination_deg": 43.0023,
      "raan_deg": 259.9486,
      "arg_perigee_deg": 273.4568,
      "mean_anomaly_deg": 86.6133,
      "mean_motion_rev_day": 15.27588434
    },
    {
      "epoch": "2026-04-08T11:34:10.052256Z",
      "apogee_km": 483.72605243975886,
      "perigee_km": 482.4056825599373,
      "latitude_deg": 6.515766422314385e-05,
      "longitude_deg": -114.77089113482256,
      "height_km": 483.0115641358847,
      "semi_major_axis_km": 6861.202867499847,
      "eccentricity": 9.622e-05,
      "inclination_deg": 42.9991,
      "raan_deg": 255.5149,
      "arg_perigee_deg": 255.1202,
      "mean_anomaly_deg": 104.9544,
      "mean_motion_rev_day": 15.27574399
    },
    {
      "epoch": "2026-04-09T03:15:44.045280Z",
      "apogee_km": 483.9278565724853,
      "perigee_km": 482.193757438743,
      "latitude_deg": 1.0964498325128407e-05,
      "longitude_deg": 5.503832069906761,
      "height_km": 482.84579126793363,
      "semi_major_axis_km": 6861.197807005614,
      "eccentricity": 0.00012637,
      "inclination_deg": 43.003,
      "raan_deg": 251.8258,
      "arg_perigee_deg": 269.4671,
      "mean_anomaly_deg": 90.6036,
      "mean_motion_rev_day": 15.27576089
    },
    {
      "epoch": "2026-04-11T16:27:50.183136Z",
      "apogee_km": 483.7461188403595,
      "perigee_km": 482.3834841625812,
      "latitude_deg": -1.0956950819523343e-05,
      "longitude_deg": 150.5605636148849,
      "height_km": 482.7336179640435,
      "semi_major_axis_km": 6861.20180150147,
      "eccentricity": 9.93e-05,
      "inclination_deg": 42.9974,
      "raan_deg": 237.4216,
      "arg_perigee_deg": 279.0572,
      "mean_anomaly_deg": 81.0167,
      "mean_motion_rev_day": 15.27574755
    },
    {
      "epoch": "2026-04-13T07:41:44.903040Z",
      "apogee_km": 483.69906920559606,
      "perigee_km": 482.410537384937,
      "latitude_deg": -4.018049852841729e-07,
      "longitude_deg": -88.75852104885709,
      "height_km": 482.8340146771494,
      "semi_major_axis_km": 6861.191803295266,
      "eccentricity": 9.39e-05,
      "inclination_deg": 43.0007,
      "raan_deg": 228.1917,
      "arg_perigee_deg": 269.7485,
      "mean_anomaly_deg": 90.3259,
      "mean_motion_rev_day": 15.27578094
    },
    {
      "epoch": "2026-04-14T15:04:52.502880Z",
      "apogee_km": 484.5914759549778,
      "perigee_km": 481.5053147641447,
      "latitude_deg": -4.532684290225415e-05,
      "longitude_deg": 151.78671199745133,
      "height_km": 482.26265611536974,
      "semi_major_axis_km": 6861.185395359561,
      "eccentricity": 0.0002249,
      "inclination_deg": 43.005,
      "raan_deg": 220.8076,
      "arg_perigee_deg": 291.4235,
      "mean_anomaly_deg": 68.6376,
      "mean_motion_rev_day": 15.27580234
    },
    {
      "epoch": "2026-04-15T14:37:12.989568Z",
      "apogee_km": 483.6878872567704,
      "perigee_km": 482.3636828392564,
      "latitude_deg": 3.600498121843729e-05,
      "longitude_deg": 152.19562593206635,
      "height_km": 482.7451722986574,
      "semi_major_axis_km": 6861.162785048014,
      "eccentricity": 9.65e-05,
      "inclination_deg": 43.0034,
      "raan_deg": 215.2685,
      "arg_perigee_deg": 274.9665,
      "mean_anomaly_deg": 85.1077,
      "mean_motion_rev_day": 15.27587785
    },
    {
      "epoch": "2026-04-16T14:09:33.988608Z",
      "apogee_km": 485.9927053883803,
      "perigee_km": 480.08523287895696,
      "latitude_deg": 1.2891042318234367e-05,
      "longitude_deg": 152.6004879687374,
      "height_km": 481.68687018389136,
      "semi_major_axis_km": 6861.175969133668,
      "eccentricity": 0.0004305,
      "inclination_deg": 43.0061,
      "raan_deg": 209.7276,
      "arg_perigee_deg": 292.5204,
      "mean_anomaly_deg": 67.5192,
      "mean_motion_rev_day": 15.27583382
    }
  ]
}